{"type": "FeatureCollection", "features": [{"type": "Feature", "properties": {"norad_id": 26766, "name": "INTELSAT 10 (IS-10)", "group": "intelsat", "lat": -2.8863812483966202, "lon": 41.685694620077214, "alt_km": 36139.728253874324, "timestamp": "2025-12-10T11:33:53.058786+00:00", "meta": {"OBJECT_NAME": "INTELSAT 10 (IS-10)", "OBJECT_ID": "2001-019A", "EPOCH": "2025-12-09T15:29:15.575424", "MEAN_MOTION": 0.99078983, "ECCENTRICITY": 0.0007832, "INCLINATION": 8.6227, "RA_OF_ASC_NODE": 61.1879, "ARG_OF_PERICENTER": 222.8476, "MEAN_ANOMALY": 178.976, "EPHEMERIS_TYPE": 0, "CLASSIFICATION_TYPE": "U", "NORAD_CAT_ID": 26766, "ELEMENT_SET_NO": 999, "REV_AT_EPOCH": 4370, "BSTAR": 0, "MEAN_MOTION_DOT": -2.84e-06, "MEAN_MOTION_DDOT": 0}, "tle": {"line1": "1 26766U 01019A   25343.64531916 -.00000284  00000+0  00000+0 0  9993", "line2": "2 26766   8.6227  61.1879 0007832 222.8476 178.9760  0.99078983 43702"}}, "geometry": {"type": "Point", "coordinates": [41.685694620077214, -2.8863812483966202]}}, {"type": "Feature", "properties": {"norad_id": 26900, "name": "INTELSAT 902 (IS-902)", "group": "intelsat", "lat": 4.39641411553599, "lon": -157.1730127453969, "alt_km": 35774.389608058416, "timestamp": "2025-12-10T11:33:53.058811+00:00", "meta": {"OBJECT_NAME": "INTELSAT 902 (IS-902)", "OBJECT_ID": "2001-039A", "EPOCH": "2025-12-01T16:59:59.311968", "MEAN_MOTION": 1.00270327, "ECCENTRICITY": 0.00043097, "INCLINATION": 5.6187, "RA_OF_ASC_NODE": 74.2002, "ARG_OF_PERICENTER": 175.119, "MEAN_ANOMALY": 26.3816, "EPHEMERIS_TYPE": 0, "CLASSIFICATION_TYPE": "U", "NORAD_CAT_ID": 26900, "ELEMENT_SET_NO": 999, "REV_AT_EPOCH": 8871, "BSTAR": 0, "MEAN_MOTION_DOT": -2.63e-06, "MEAN_MOTION_DDOT": 0}, "tle": {"line1": "1 26900U 01039A   25335.70832537 -.00000263  00000+0  00000+0 0  9993", "line2": "2 26900   5.6187  74.2002 0004309 175.1190  26.3816  1.00270327 88713"}}, "geometry": {"type": "Point", "coordinates": [-157.1730127453969, 4.39641411553599]}}, {"type": "Feature", "properties": {"norad_id": 27380, "name": "INTELSAT 904 (IS-904)", "group": "intelsat", "lat": 3.211531635291618, "lon": -138.43914762390352, "alt_km": 35782.71096092534, "timestamp": "2025-12-10T11:33:53.058829+00:00", "meta": {"OBJECT_NAME": "INTELSAT 904 (IS-904)", "OBJECT_ID": "2002-007A", "EPOCH": "2025-12-09T11:42:40.881024", "MEAN_MOTION": 1.00273083, "ECCENTRICITY": 0.0001514, "INCLINATION": 6.4469, "RA_OF_ASC_NODE": 71.4685, "ARG_OF_PERICENTER": 215.3872, "MEAN_ANOMALY": 295.774, "EPHEMERIS_TYPE": 0, "CLASSIFICATION_TYPE": "U", "NORAD_CAT_ID": 27380, "ELEMENT_SET_NO": 999, "REV_AT_EPOCH": 4986, "BSTAR": 0, "MEAN_MOTION_DOT": -2.24e-06, "MEAN_MOTION_DDOT": 0}, "tle": {"line1": "1 27380U 02007A   25343.48797316 -.00000224  00000+0  00000+0 0  9998", "line2": "2 27380   6.4469  71.4685 0001514 215.3872 295.7740  1.00273083 49866"}}, "geometry": {"type": "Point", "coordinates": [-138.43914762390352, 3.211531635291618]}}, {"type": "Feature", "properties": {"norad_id": 27426, "name": "DIRECTV 5 (TEMPO 1)", "group": "intelsat", "lat": 3.9966416368075386, "lon": 142.7205342111377, "alt_km": 35797.44643511092, "timestamp": "2025-12-10T11:33:53.058843+00:00", "meta": {"OBJECT_NAME": "DIRECTV 5 (TEMPO 1)", "OBJECT_ID": "2002-023A", "EPOCH": "2025-12-10T04:31:38.802720", "MEAN_MOTION": 1.00272185, "ECCENTRICITY": 0.0003898, "INCLINATION": 4.396, "RA_OF_ASC_NODE": 77.6814, "ARG_OF_PERICENTER": 201.9504, "MEAN_ANOMALY": 117.3336, "EPHEMERIS_TYPE": 0, "CLASSIFICATION_TYPE": "U", "NORAD_CAT_ID": 27426, "ELEMENT_SET_NO": 999, "REV_AT_EPOCH": 8622, "BSTAR": 0, "MEAN_MOTION_DOT": -5.4e-07, "MEAN_MOTION_DDOT": 0}, "tle": {"line1": "1 27426U 02023A   25344.18864355 -.00000054  00000+0  00000+0 0  9994", "line2": "2 27426   4.3960  77.6814 0003898 201.9504 117.3336  1.00272185 86225"}}, "geometry": {"type": "Point", "coordinates": [142.7205342111377, 3.9966416368075386]}}, {"type": "Feature", "properties": {"norad_id": 27438, "name": "INTELSAT 905 (IS-905)", "group": "intelsat", "lat": 4.344642348086484, "lon": 115.53456300655328, "alt_km": 35795.627526988465, "timestamp": "2025-12-10T11:33:53.058855+00:00", "meta": {"OBJECT_NAME": "INTELSAT 905 (IS-905)", "OBJECT_ID": "2002-027A", "EPOCH": "2025-12-09T11:59:00.274272", "MEAN_MOTION": 1.00271823, "ECCENTRICITY": 0.00028473, "INCLINATION": 6.2778, "RA_OF_ASC_NODE": 72.0923, "ARG_OF_PERICENTER": 191.5585, "MEAN_ANOMALY": 217.3829, "EPHEMERIS_TYPE": 0, "CLASSIFICATION_TYPE": "U", "NORAD_CAT_ID": 27438, "ELEMENT_SET_NO": 999, "REV_AT_EPOCH": 4946, "BSTAR": 0, "MEAN_MOTION_DOT": 9.5e-07, "MEAN_MOTION_DDOT": 0}, "tle": {"line1": "1 27438U 02027A   25343.49930873  .00000095  00000+0  00000+0 0  9997", "line2": "2 27438   6.2778  72.0923 0002847 191.5585 217.3829  1.00271823 49463"}}, "geometry": {"type": "Point", "coordinates": [115.53456300655328, 4.344642348086484]}}, {"type": "Feature", "properties": {"norad_id": 27445, "name": "GALAXY 3C (G-3C)", "group": "intelsat", "lat": 3.1854932685443127, "lon": 158.0410592754518, "alt_km": 35781.46841293176, "timestamp": "2025-12-10T11:33:53.058867+00:00", "meta": {"OBJECT_NAME": "GALAXY 3C (G-3C)", "OBJECT_ID": "2002-030A", "EPOCH": "2025-12-10T04:23:38.620032", "MEAN_MOTION": 1.00271026, "ECCENTRICITY": 0.0001111, "INCLINATION": 3.2582, "RA_OF_ASC_NODE": 80.529, "ARG_OF_PERICENTER": 95.9073, "MEAN_ANOMALY": 233.7736, "EPHEMERIS_TYPE": 0, "CLASSIFICATION_TYPE": "U", "NORAD_CAT_ID": 27445, "ELEMENT_SET_NO": 999, "REV_AT_EPOCH": 4459, "BSTAR": 0, "MEAN_MOTION_DOT": -1.49e-06, "MEAN_MOTION_DDOT": 0}, "tle": {"line1": "1 27445U 02030A   25344.18308588 -.00000149  00000+0  00000+0 0  9999", "line2": "2 27445   3.2582  80.5290 0001111  95.9073 233.7736  1.00271026 44597"}}, "geometry": {"type": "Point", "coordinates": [158.0410592754518, 3.1854932685443127]}}, {"type": "Feature", "properties": {"norad_id": 27513, "name": "INTELSAT 906 (IS-906)", "group": "intelsat", "lat": -4.703594498175609, "lon": -42.98351313996727, "alt_km": 35770.71231427199, "timestamp": "2025-12-10T11:33:53.058879+00:00", "meta": {"OBJECT_NAME": "INTELSAT 906 (IS-906)", "OBJECT_ID": "2002-041A", "EPOCH": "2025-12-09T20:43:37.286400", "MEAN_MOTION": 1.00271049, "ECCENTRICITY": 0.000612, "INCLINATION": 5.3215, "RA_OF_ASC_NODE": 75.2657, "ARG_OF_PERICENTER": 190.4585, "MEAN_ANOMALY": 188.1629, "EPHEMERIS_TYPE": 0, "CLASSIFICATION_TYPE": "U", "NORAD_CAT_ID": 27513, "ELEMENT_SET_NO": 999, "REV_AT_EPOCH": 8513, "BSTAR": 0, "MEAN_MOTION_DOT": 1.5e-07, "MEAN_MOTION_DDOT": 0}, "tle": {"line1": "1 27513U 02041A   25343.86362600  .00000015  00000+0  00000+0 0  9997", "line2": "2 27513   5.3215  75.2657 0006120 190.4585 188.1629  1.00271049 85135"}}, "geometry": {"type": "Point", "coordinates": [-42.98351313996727, -4.703594498175609]}}, {"type": "Feature", "properties": {"norad_id": 27954, "name": "GALAXY 13 (HORIZONS-1)", "group": "intelsat", "lat": 0.27953230736470225, "lon": 102.91061411922698, "alt_km": 35793.6017438077, "timestamp": "2025-12-10T11:33:53.058892+00:00", "meta": {"OBJECT_NAME": "GALAXY 13 (HORIZONS-1)", "OBJECT_ID": "2003-044A", "EPOCH": "2025-12-10T04:03:50.683104", "MEAN_MOTION": 1.0027039, "ECCENTRICITY": 0.0002026, "INCLINATION": 0.9288, "RA_OF_ASC_NODE": 86.503, "ARG_OF_PERICENTER": 163.435, "MEAN_ANOMALY": 100.1733, "EPHEMERIS_TYPE": 0, "CLASSIFICATION_TYPE": "U", "NORAD_CAT_ID": 27954, "ELEMENT_SET_NO": 999, "REV_AT_EPOCH": 4467, "BSTAR": 0, "MEAN_MOTION_DOT": 1.36e-06, "MEAN_MOTION_DDOT": 0}, "tle": {"line1": "1 27954U 03044A   25344.16933661  .00000136  00000+0  00000+0 0  9999", "line2": "2 27954   0.9288  86.5030 0002026 163.4350 100.1733  1.00270390 44678"}}, "geometry": {"type": "Point", "coordinates": [102.91061411922698, 0.27953230736470225]}}, {"type": "Feature", "properties": {"norad_id": 28358, "name": "INTELSAT 10-02", "group": "intelsat", "lat": -0.01724216208288999, "lon": -108.00470996796089, "alt_km": 35770.93836313445, "timestamp": "2025-12-10T11:33:53.058904+00:00", "meta": {"OBJECT_NAME": "INTELSAT 10-02", "OBJECT_ID": "2004-022A", "EPOCH": "2025-12-09T23:46:38.709120", "MEAN_MOTION": 1.00289796, "ECCENTRICITY": 0.0002399, "INCLINATION": 0.028, "RA_OF_ASC_NODE": 69.1558, "ARG_OF_PERICENTER": 175.9009, "MEAN_ANOMALY": 189.6126, "EPHEMERIS_TYPE": 0, "CLASSIFICATION_TYPE": "U", "NORAD_CAT_ID": 28358, "ELEMENT_SET_NO": 999, "REV_AT_EPOCH": 7865, "BSTAR": 0, "MEAN_MOTION_DOT": -4e-08, "MEAN_MOTION_DDOT": 0}, "tle": {"line1": "1 28358U 04022A   25343.99072580 -.00000004  00000+0  00000+0 0  9994", "line2": "2 28358   0.0280  69.1558 0002399 175.9009 189.6126  1.00289796 78657"}}, "geometry": {"type": "Point", "coordinates": [-108.00470996796089, -0.01724216208288999]}}, {"type": "Feature", "properties": {"norad_id": 28626, "name": "XM-3 (RHYTHM)", "group": "intelsat", "lat": -0.13793226008454795, "lon": 17.97743727632632, "alt_km": 36154.88623057667, "timestamp": "2025-12-10T11:33:53.058916+00:00", "meta": {"OBJECT_NAME": "XM-3 (RHYTHM)", "OBJECT_ID": "2005-008A", "EPOCH": "2025-12-09T14:54:38.529792", "MEAN_MOTION": 0.98953659, "ECCENTRICITY": 0.0001381, "INCLINATION": 0.1668, "RA_OF_ASC_NODE": 81.2156, "ARG_OF_PERICENTER": 264.7021, "MEAN_ANOMALY": 85.4801, "EPHEMERIS_TYPE": 0, "CLASSIFICATION_TYPE": "U", "NORAD_CAT_ID": 28626, "ELEMENT_SET_NO": 999, "REV_AT_EPOCH": 4071, "BSTAR": 0, "MEAN_MOTION_DOT": -2.36e-06, "MEAN_MOTION_DDOT": 0}, "tle": {"line1": "1 28626U 05008A   25343.62127928 -.00000236  00000+0  00000+0 0  9991", "line2": "2 28626   0.1668  81.2156 0001381 264.7021  85.4801  0.98953659 40717"}}, "geometry": {"type": "Point", "coordinates": [17.97743727632632, -0.13793226008454795]}}]}